{
  "type": "FeatureCollection",
  "features": [
    {
      "type": "Feature",
      "properties": {
        "norad_id": 41026,
        "name": "YAOGAN-28",
        "group": "resource",
        "lat": -74.67260494839333,
        "lon": -70.89037981414572,
        "alt_km": 508.066590996792,
        "timestamp": "2025-12-25T11:37:44.078961+00:00",
        "meta_object_name": "YAOGAN-28",
        "meta_object_id": "2015-064A",
        "meta_epoch": "2025-12-25T04:12:25.413696",
        "meta_mean_motion": 15.24546991,
        "meta_eccentricity": 0.0012667,
        "meta_inclination": 97.2817,
        "meta_ra_of_asc_node": 136.6183,
        "meta_arg_of_pericenter": 86.6518,
        "meta_mean_anomaly": 273.6169,
        "meta_ephemeris_type": 0,
        "meta_classification_type": "U",
        "meta_norad_cat_id": 41026,
        "meta_element_set_no": 999,
        "meta_rev_at_epoch": 56414,
        "meta_bstar": 0.00034428,
        "meta_mean_motion_dot": 8.427e-05,
        "meta_mean_motion_ddot": 0,
        "tle_line1": "1 41026U 15064A   25359.17529414  .00008427  00000+0  34428-3 0  9990",
        "tle_line2": "2 41026  97.2817 136.6183 0012667  86.6518 273.6169 15.24546991564143"
      },
      "geometry": {
        "type": "Point",
        "coordinates": [
          -70.89037981414572,
          -74.67260494839333
        ]
      }
    },
    {
      "type": "Feature",
      "properties": {
        "norad_id": 41038,
        "name": "YAOGAN-29",
        "group": "resource",
        "lat": -68.0379884562016,
        "lon": -177.7700843397803,
        "alt_km": 627.4199322858658,
        "timestamp": "2025-12-25T11:37:44.078971+00:00",
        "meta_object_name": "YAOGAN-29",
        "meta_object_id": "2015-069A",
        "meta_epoch": "2025-12-25T05:38:56.755104",
        "meta_mean_motion": 14.82897096,
        "meta_eccentricity": 9.21e-05,
        "meta_inclination": 98.0205,
        "meta_ra_of_asc_node": 22.4463,
        "meta_arg_of_pericenter": 163.2733,
        "meta_mean_anomaly": 196.851,
        "meta_ephemeris_type": 0,
        "meta_classification_type": "U",
        "meta_norad_cat_id": 41038,
        "meta_element_set_no": 999,
        "meta_rev_at_epoch": 54484,
        "meta_bstar": 0.00013059,
        "meta_mean_motion_dot": 1.004e-05,
        "meta_mean_motion_ddot": 0,
        "tle_line1": "1 41038U 15069A   25359.23537911  .00001004  00000+0  13059-3 0  9997",
        "tle_line2": "2 41038  98.0205  22.4463 0000921 163.2733 196.8510 14.82897096544849"
      },
      "geometry": {
        "type": "Point",
        "coordinates": [
          -177.7700843397803,
          -68.0379884562016
        ]
      }
    },
    {
      "type": "Feature",
      "properties": {
        "norad_id": 41167,
        "name": "KENT RIDGE 1",
        "group": "resource",
        "lat": -6.779370252202318,
        "lon": 90.16928001173166,
        "alt_km": 493.25447746415466,
        "timestamp": "2025-12-25T11:37:44.078981+00:00",
        "meta_object_name": "KENT RIDGE 1",
        "meta_object_id": "2015-077B",
        "meta_epoch": "2025-12-24T23:09:45.505728",
        "meta_mean_motion": 15.21725755,
        "meta_eccentricity": 0.0008548,
        "meta_inclination": 14.9791,
        "meta_ra_of_asc_node": 120.4179,
        "meta_arg_of_pericenter": 303.3992,
        "meta_mean_anomaly": 56.5512,
        "meta_ephemeris_type": 0,
        "meta_classification_type": "U",
        "meta_norad_cat_id": 41167,
        "meta_element_set_no": 999,
        "meta_rev_at_epoch": 55450,
        "meta_bstar": 0.00017266,
        "meta_mean_motion_dot": 4.787e-05,
        "meta_mean_motion_ddot": 0,
        "tle_line1": "1 41167U 15077B   25358.96511002  .00004787  00000+0  17266-3 0  9996",
        "tle_line2": "2 41167  14.9791 120.4179 0008548 303.3992  56.5512 15.21725755554503"
      },
      "geometry": {
        "type": "Point",
        "coordinates": [
          90.16928001173166,
          -6.779370252202318
        ]
      }
    },
    {
      "type": "Feature",
      "properties": {
        "norad_id": 41194,
        "name": "GAOFEN-4",
        "group": "resource",
        "lat": -0.1845370113076688,
        "lon": 14.370808594256612,
        "alt_km": 35797.850065776605,
        "timestamp": "2025-12-25T11:37:44.078994+00:00",
        "meta_object_name": "GAOFEN-4",
        "meta_object_id": "2015-083A",
        "meta_epoch": "2025-12-24T23:52:24.163968",
        "meta_mean_motion": 1.00270172,
        "meta_eccentricity": 0.0002829,
        "meta_inclination": 0.1999,
        "meta_ra_of_asc_node": 81.8667,
        "meta_arg_of_pericenter": 93.4029,
        "meta_mean_anomaly": 22.3054,
        "meta_ephemeris_type": 0,
        "meta_classification_type": "U",
        "meta_norad_cat_id": 41194,
        "meta_element_set_no": 999,
        "meta_rev_at_epoch": 3678,
        "meta_bstar": 0,
        "meta_mean_motion_dot": -3.14e-06,
        "meta_mean_motion_ddot": 0,
        "tle_line1": "1 41194U 15083A   25358.99472412 -.00000314  00000+0  00000+0 0  9994",
        "tle_line2": "2 41194   0.1999  81.8667 0002829  93.4029  22.3054  1.00270172 36783"
      },
      "geometry": {
        "type": "Point",
        "coordinates": [
          14.370808594256612,
          -0.1845370113076688
        ]
      }
    },
    {
      "type": "Feature",
      "properties": {
        "norad_id": 41240,
        "name": "JASON-3",
        "group": "resource",
        "lat": -14.968016189927335,
        "lon": 124.20275496832568,
        "alt_km": 1312.9057358886148,
        "timestamp": "2025-12-25T11:37:44.079005+00:00",
        "meta_object_name": "JASON-3",
        "meta_object_id": "2016-002A",
        "meta_epoch": "2025-12-25T02:23:36.697920",
        "meta_mean_motion": 12.87627046,
        "meta_eccentricity": 0.0007297,
        "meta_inclination": 66.0405,
        "meta_ra_of_asc_node": 131.8386,
        "meta_arg_of_pericenter": 271.5389,
        "meta_mean_anomaly": 88.4793,
        "meta_ephemeris_type": 0,
        "meta_classification_type": "U",
        "meta_norad_cat_id": 41240,
        "meta_element_set_no": 999,
        "meta_rev_at_epoch": 46483,
        "meta_bstar": 0.00011027,
        "meta_mean_motion_dot": -3.4e-07,
        "meta_mean_motion_ddot": 0,
        "tle_line1": "1 41240U 16002A   25359.09973030 -.00000034  00000+0  11027-3 0  9996",
        "tle_line2": "2 41240  66.0405 131.8386 0007297 271.5389  88.4793 12.87627046464831"
      },
      "geometry": {
        "type": "Point",
        "coordinates": [
          124.20275496832568,
          -14.968016189927335
        ]
      }
    },
    {
      "type": "Feature",
      "properties": {
        "norad_id": 41335,
        "name": "SENTINEL-3A",
        "group": "resource",
        "lat": -73.891099534114,
        "lon": -147.4053984482821,
        "alt_km": 810.5506915239384,
        "timestamp": "2025-12-25T11:37:44.079015+00:00",
        "meta_object_name": "SENTINEL-3A",
        "meta_object_id": "2016-011A",
        "meta_epoch": "2025-12-25T03:41:55.242240",
        "meta_mean_motion": 14.26735366,
        "meta_eccentricity": 8.83e-05,
        "meta_inclination": 98.6297,
        "meta_ra_of_asc_node": 63.9934,
        "meta_arg_of_pericenter": 97.2384,
        "meta_mean_anomaly": 262.8896,
        "meta_ephemeris_type": 0,
        "meta_classification_type": "U",
        "meta_norad_cat_id": 41335,
        "meta_element_set_no": 999,
        "meta_rev_at_epoch": 51324,
        "meta_bstar": 7.3648e-05,
        "meta_mean_motion_dot": 1.35e-06,
        "meta_mean_motion_ddot": 0,
        "tle_line1": "1 41335U 16011A   25359.15411160  .00000135  00000+0  73648-4 0  9998",
        "tle_line2": "2 41335  98.6297  63.9934 0000883  97.2384 262.8896 14.26735366513244"
      },
      "geometry": {
        "type": "Point",
        "coordinates": [
          -147.4053984482821,
          -73.891099534114
        ]
      }
    },
    {
      "type": "Feature",
      "properties": {
        "norad_id": 41556,
        "name": "ZIYUAN 3-02 (ZY 3-02)",
        "group": "resource",
        "lat": 17.451536824779907,
        "lon": 71.09549916708013,
        "alt_km": 510.5499715207816,
        "timestamp": "2025-12-25T11:37:44.079025+00:00",
        "meta_object_name": "ZIYUAN 3-02 (ZY 3-02)",
        "meta_object_id": "2016-033A",
        "meta_epoch": "2025-12-25T05:14:12.715008",
        "meta_mean_motion": 15.21230269,
        "meta_eccentricity": 0.0011443,
        "meta_inclination": 97.4024,
        "meta_ra_of_asc_node": 73.1761,
        "meta_arg_of_pericenter": 199.6653,
        "meta_mean_anomaly": 160.4143,
        "meta_ephemeris_type": 0,
        "meta_classification_type": "U",
        "meta_norad_cat_id": 41556,
        "meta_element_set_no": 999,
        "meta_rev_at_epoch": 53153,
        "meta_bstar": 0.00037784,
        "meta_mean_motion_dot": 8.383e-05,
        "meta_mean_motion_ddot": 0,
        "tle_line1": "1 41556U 16033A   25359.21820272  .00008383  00000+0  37784-3 0  9995",
        "tle_line2": "2 41556  97.4024  73.1761 0011443 199.6653 160.4143 15.21230269531533"
      },
      "geometry": {
        "type": "Point",
        "coordinates": [
          71.09549916708013,
          17.451536824779907
        ]
      }
    }
  ]
}